SARSAT 7 (NOAA 15)      
1 25338U 98030A   24178.49463402  .00000305  00000+0  14403-3 0  9997
2 25338  98.5677 205.4268 0009179 301.0232  59.0046 14.26611528358768
GPS BIIR-08             
1 27663U 03005A   24175.66003359  .00000046  00000+0  00000+0 0  9991
2 27663  55.1019 243.7387 0136424  47.3834 305.0005  2.00574424156799
GPS BIIR-11             
1 28190U 04009A   24178.41243925 -.00000051  00000+0  00000+0 0  9990
2 28190  55.4464 304.6718 0098112 148.6689 190.0223  2.00558916148525
GPS BIIR-13             
1 28474U 04045A   24177.37473153 -.00000070  00000+0  00000+0 0  9998
2 28474  55.4261 353.8818 0161770 292.6801  62.1942  2.00561154143945
SARSAT 10 (NOAA 18)     
1 28654U 05018A   24178.41196295  .00000289  00000+0  17792-3 0  9995
2 28654  98.8744 255.3004 0014793  41.2597 318.9690 14.13238485984565
GPS BIIR-14M            
1 28874U 05038A   24178.41435780 -.00000049  00000+0  00000+0 0  9991
2 28874  55.4923 302.1334 0136221 284.1943  79.7795  2.00554664137378
METEOSAT-9 (MSG-2)      
1 28912U 05049B   24170.89274675  .00000150  00000+0  00000+0 0  9996
2 28912   7.6905  60.8403 0003099 222.0026 351.9854  1.00141344 67777
GOES 13                 
1 29155U 06018A   24178.49966632 -.00000059  00000+0  00000+0 0  9997
2 29155   2.6496  85.1996 0080145 255.6688 308.0663  0.99087344 66256
GPS BIIR-16M            
1 29601U 06052A   24177.47606621  .00000032  00000+0  00000+0 0  9997
2 29601  55.1320 242.6445 0084861  83.1921 277.8574  2.00568200128930
GPS BIIR-17M            
1 32260U 07047A   24178.27648589  .00000019  00000+0  00000+0 0  9990
2 32260  53.6114 109.8737 0155529  75.4793 286.2295  2.00563462122379
GPS BIIR-18M            
1 32384U 07062A   24177.56921892 -.00000044  00000+0  00000+0 0  9995
2 32384  55.6327 303.0308 0028686 152.1305 185.7980  2.00575236121039
SARSAT 12 (NOAA 19)     
1 33591U 09005A   24178.43544764  .00000270  00000+0  16914-3 0  9996
2 33591  99.0466 234.3323 0012754 265.5029  94.4685 14.13033771792931
GOES 14                 
1 35491U 09033A   24178.44538873 -.00000062  00000+0  00000+0 0  9998
2 35491   0.3615 103.2206 0003970 358.2399 225.4043  1.00271825 54927
GOES 15                 
1 36411U 10008A   24178.11275691  .00000045  00000+0  00000+0 0  9995
2 36411   0.3251  89.2864 0002459  97.9740 189.2829  1.00269222 52405
GSAT0101 (GALILEO-PFM)  
1 37846U 11060A   24176.17571152 -.00000068  00000+0  00000+0 0  9998
2 37846  57.1295   1.3437 0003405  53.0486 307.0070  1.70475809 78794
GSAT0102 (GALILEO-FM2)  
1 37847U 11060B   24178.44427726 -.00000073  00000+0  00000+0 0  9994
2 37847  57.1303   1.2825 0002871  16.3548 341.6366  1.70475232 78963
LUCH 5A                 
1 37951U 11074B   24178.53780837 -.00000047  00000+0  00000+0 0  9991
2 37951   6.9085  84.8347 0004143  17.6923 173.1220  1.00272420 45967
METEOSAT-10 (MSG-3)     
1 38552U 12035B   24178.17220755 -.00000003  00000+0  00000+0 0  9997
2 38552   2.9847  61.0665 0000569 333.5072 302.3000  1.00267971 43987
SARSAT 13 (METOP-B)     
1 38771U 12049A   24178.46453730  .00000193  00000+0  10790-3 0  9998
2 38771  98.6274 235.4796 0001523  88.8987 271.2365 14.21442879610868
GPS BIIF-3              
1 38833U 12053A   24177.37630649  .00000082  00000+0  00000+0 0  9993
2 38833  53.5184 173.1344 0152140  55.8717 305.5625  2.00558699 85858
GSAT0103 (GALILEO-FM3)  
1 38857U 12055A   24176.80144993  .00000023  00000+0  00000+0 0  9995
2 38857  55.4102 121.3966 0005095 281.7183  78.1851  1.70473519 72698
GPS BIIF-4              
1 39166U 13023A   24177.73781649 -.00000042  00000+0  00000+0 0  9995
2 39166  55.1053 298.2378 0123819  44.9405 316.0695  2.00562673 81409
INSAT-3D                
1 39216U 13038B   24177.61602647 -.00000150  00000+0  00000+0 0  9994
2 39216   0.0603 100.9311 0000654 138.8040 338.3556  1.00271304 39841
GPS BIIF-5              
1 39533U 14008A   24177.73829946  .00000084  00000+0  00000+0 0  9995
2 39533  53.6010 178.7183 0073307 220.8269 138.6321  2.00568873 75212
LUCH 5V                 
1 39727U 14023A   24178.11945765 -.00000265  00000+0  00000+0 0  9990
2 39727   3.3184  75.9962 0002112  68.0923 268.3816  1.00272577555270
GPS BIIF-6              
1 39741U 14026A   24178.01556420 -.00000069  00000+0  00000+0 0  9996
2 39741  56.7101 359.5252 0030949 316.7246  43.0538  2.00567626 74065
GPS BIIF-7              
1 40105U 14045A   24178.10885459  .00000032  00000+0  00000+0 0  9999
2 40105  54.9346 117.2523 0025836 115.0459 245.2050  2.00566832 72507
GSAT0201 (GALILEO 5)    
1 40128U 14050A   24176.09433000 -.00000060  00000+0  00000+0 0  9999
2 40128  49.6531 302.7870 1611768 151.5215 218.3564  1.85519349 64905
GSAT0202 (GALILEO 6)    
1 40129U 14050B   24177.43057528 -.00000063  00000+0  00000+0 0  9999
2 40129  49.6686 301.8101 1610611 152.3749 217.2329  1.85519993 67096
GPS BIIF-8              
1 40294U 14068A   24176.98454687 -.00000041  00000+0  00000+0 0  9993
2 40294  56.4271  58.9359 0054144  62.4626 298.1481  2.00560214 70728
GLONASS-K 2             
1 40315U 14075A   24176.64141447  .00000079  00000+0  00000+0 0  9995
2 40315  63.6213 215.4170 0020891 210.9802 148.9776  2.13101430 74455
GPS BIIF-9              
1 40534U 15013A   24176.61689151  .00000048  00000+0  00000+0 0  9993
2 40534  53.3408 234.0899 0087851  29.7481 330.8395  2.00565012 67337
GSAT0203 (GALILEO 7)    
1 40544U 15017A   24177.12811761 -.00000070  00000+0  00000+0 0  9995
2 40544  56.9246   1.2511 0001479 250.4375 109.5685  1.70475887 56897
GSAT0204 (GALILEO 8)    
1 40545U 15017B   24177.96891741 -.00000072  00000+0  00000+0 0  9996
2 40545  56.9313   1.2437 0001604 213.3899 146.6207  1.70475523 57574
GPS BIIF-10             
1 40730U 15033A   24176.77869988 -.00000037  00000+0  00000+0 0  9997
2 40730  54.5894 296.7461 0094008  19.7429 340.6335  2.00566553 65501
METEOSAT-11 (MSG-4)     
1 40732U 15034A   24171.59020498  .00000087  00000+0  00000+0 0  9994
2 40732   1.3918  69.1738 0001876 153.3473 267.8398  1.00279855   552
GSAT0205 (GALILEO 9)    
1 40889U 15045A   24177.15055722  .00000043  00000+0  00000+0 0  9997
2 40889  55.2133 241.5507 0002471 348.1946  11.8951  1.70473622 54706
GSAT0206 (GALILEO 10)   
1 40890U 15045B   24177.37120973  .00000041  00000+0  00000+0 0  9992
2 40890  55.2121 241.5399 0001185 354.8460   5.2472  1.70473856 54737
GPS BIIF-11             
1 41019U 15062A   24177.83495284 -.00000045  00000+0  00000+0 0  9991
2 41019  56.4083  58.7558 0095302 224.9157 134.3679  2.00562389 63366
ELEKTRO-L 2             
1 41105U 15074A   24178.38397691 -.00000114  00000+0  00000+0 0  9991
2 41105   4.8646  79.3683 0000815 137.4759 181.9112  1.00270422 31282
GSAT0209 (GALILEO 12)   
1 41174U 15079A   24177.54084904  .00000024  00000+0  00000+0 0  9998
2 41174  55.4290 121.0856 0004974 318.5769  41.3504  1.70473855 52475
GSAT0208 (GALILEO 11)   
1 41175U 15079B   24176.00083823  .00000022  00000+0  00000+0 0  9996
2 41175  55.4273 121.1258 0004522 317.1162  42.8050  1.70473880 52868
GPS BIIF-12             
1 41328U 16007A   24177.91535990  .00000034  00000+0  00000+0 0  9999
2 41328  55.1295 118.1043 0079880 238.9297 120.2665  2.00561344 61416
GSAT0211 (GALILEO 14)   
1 41549U 16030A   24177.88348606  .00000038  00000+0  00000+0 0  9996
2 41549  55.3601 241.5378 0003109 304.7053  55.3569  1.70473697 50350
GSAT0210 (GALILEO 13)   
1 41550U 16030B   24176.41503105  .00000047  00000+0  00000+0 0  9993
2 41550  55.3603 241.5793 0002795 263.5194  96.5478  1.70473991 50345
INSAT-3DR               
1 41752U 16054A   24177.97271837 -.00000072  00000+0  00000+0 0  9998
2 41752   0.1244  93.4310 0010127 174.1296  71.2014  1.00271424 28560
GSAT0207 (GALILEO 15)   
1 41859U 16069A   24175.48812228  .00000021  00000+0  00000+0 0  9994
2 41859  55.0929 121.1419 0005210 305.5761  54.3292  1.70473849 47068
GSAT0212 (GALILEO 16)   
1 41860U 16069B   24174.16923395  .00000021  00000+0  00000+0 0  9998
2 41860  55.0904 121.1749 0003944 329.5111  30.4153  1.70474082 47292
GSAT0213 (GALILEO 17)   
1 41861U 16069C   24177.47064856  .00000023  00000+0  00000+0 0  9996
2 41861  55.0937 121.0899 0005007 288.9026  71.0076  1.70472673 47210
GSAT0214 (GALILEO 18)   
1 41862U 16069D   24178.20250987  .00000024  00000+0  00000+0 0  9992
2 41862  55.0927 121.0633 0004102 293.0776  66.8472  1.70474064 47353
GOES 16                 
1 41866U 16071A   24178.44349404 -.00000244  00000+0  00000+0 0  9993
2 41866   0.0799 252.7348 0000443 195.7155 271.0594  1.00271439 27876
GSAT-17                 
1 42815U 17040B   24178.47705554 -.00000253  00000+0  00000+0 0  9990
2 42815   0.0415 106.9017 0001240 166.8036 266.5940  1.00271524 25644
GSAT0215 (GALILEO 19)   
1 43055U 17079A   24176.34591963  .00000048  00000+0  00000+0 0  9991
2 43055  55.3380 241.4019 0003255 256.4641 103.5990  1.70474514 40663
GSAT0216 (GALILEO 20)   
1 43056U 17079B   24176.63761166  .00000046  00000+0  00000+0 0  9996
2 43056  55.3380 241.3939 0003459 265.3973  94.6613  1.70474788 40684
GSAT0217 (GALILEO 21)   
1 43057U 17079C   24175.09833589  .00000052  00000+0  00000+0 0  9992
2 43057  55.3365 241.4354 0006026 273.2970  86.7361  1.70474214 40640
GSAT0218 (GALILEO 22)   
1 43058U 17079D   24174.14523110  .00000052  00000+0  00000+0 0  9994
2 43058  55.3375 241.4587 0004792 265.6678  94.3785  1.70474611 40655
GOES 17                 
1 43226U 18022A   24178.17341244 -.00000086  00000+0  00000+0 0  9991
2 43226   0.0146 154.8060 0001004 335.1048 102.5938  1.00270899 23204
GSAT0221 (GALILEO 25)   
1 43564U 18060A   24176.97890468 -.00000069  00000+0  00000+0 0  9992
2 43564  57.3037   1.2573 0001962 298.8682  61.1344  1.70475735 36858
GSAT0222 (GALILEO 26)   
1 43565U 18060B   24177.78402340 -.00000071  00000+0  00000+0 0  9994
2 43565  57.3083   1.2376 0001558 218.4869 141.5230  1.70475465 36911
GSAT0219 (GALILEO 23)   
1 43566U 18060C   24178.00588816 -.00000072  00000+0  00000+0 0  9995
2 43566  57.3078   1.2336 0001442 326.2517  33.7597  1.70475748 36891
